FLOCK 4H-8              
1 66711U 25276AX  25355.11350096  .00005107  00000+0  25845-3 0  9997
2 66711  97.4437  66.7422 0002338 277.6003  82.4965 15.17456167  3397
FLOCK 4H-9              
1 66712U 25276AY  25355.17252355  .00005177  00000+0  25872-3 0  9990
2 66712  97.4431  66.8142 0002598 224.3251 135.7775 15.17889226  3403
FLOCK 4H-10             
1 66713U 25276AZ  25354.72076355  .00006498  00000+0  32981-3 0  9991
2 66713  97.4404  66.3364 0002950 270.0344  90.0551 15.17244305  3338
FLOCK 4H-11             
1 66714U 25276BA  25355.17774177  .00009600  00000+0  47863-3 0  9992
2 66714  97.4424  66.8061 0002080 285.9401  74.1603 15.17746686  3401
FLOCK 4H-12             
1 66715U 25276BB  25355.17060197  .00006835  00000+0  33885-3 0  9999
2 66715  97.4400  66.8001 0001866 189.6508 170.4690 15.18054120  3715
FLOCK 4H-13             
1 66716U 25276BC  25355.16866192  .00007401  00000+0  36543-3 0  9992
2 66716  97.4437  66.8163 0001660 149.1020 211.0312 15.18165719  3403
FLOCK 4H-14             
1 66717U 25276BD  25355.16685397  .00004283  00000+0  21201-3 0  9999
2 66717  97.4422  66.8150 0001499 135.2846 224.8509 15.18316174  2655
FLOCK 4H-15             
1 66718U 25276BE  25355.18404352  .00006060  00000+0  30926-3 0  9991
2 66718  97.4429  66.7954 0002990 278.6943  81.3952 15.17083951  3406
FLOCK 4H-16             
1 66719U 25276BF  25355.18247992  .00005991  00000+0  30479-3 0  9992
2 66719  97.4442  66.8018 0003091 260.3482  99.7403 15.17195505  3406
FLOCK 4H-17             
1 66720U 25276BG  25355.17054300  .00006690  00000+0  33189-3 0  9990
2 66720  97.4447  66.8210 0002568 197.3263 162.7884 15.18037564  3406
FLOCK 4H-18             
1 66721U 25276BH  25355.18354212  .00004885  00000+0  24973-3 0  9992
2 66721  97.4388  66.7818 0002528 292.9689  67.1278 15.17117423  3401
FLOCK 4H-19             
1 66722U 25276BJ  25355.16790392  .00006258  00000+0  30920-3 0  9999
2 66722  97.4398  66.8045 0002274 160.4921 199.6400 15.18206634  2694
