CCSDS_OMM_VERS = 2.0
CREATION_DATE  = 
ORIGINATOR     = 

OBJECT_NAME    = FLOCK 4H-8
OBJECT_ID      = 2025-276AX
CENTER_NAME    = EARTH
REF_FRAME      = TEME
TIME_SYSTEM    = UTC
MEAN_ELEMENT_THEORY = SGP/SGP4

EPOCH          = 2025-12-21T02:43:26.482944
MEAN_MOTION    = 15.17456167
ECCENTRICITY   = .0002338
INCLINATION    = 97.4437
RA_OF_ASC_NODE = 66.7422
ARG_OF_PERICENTER = 277.6003
MEAN_ANOMALY   = 82.4965

EPHEMERIS_TYPE = 0
CLASSIFICATION_TYPE = U
NORAD_CAT_ID   = 66711
ELEMENT_SET_NO = 999
REV_AT_EPOCH   = 339
BSTAR          = .25845E-3
MEAN_MOTION_DOT = .5107E-4
MEAN_MOTION_DDOT = 0

CCSDS_OMM_VERS = 2.0
CREATION_DATE  = 
ORIGINATOR     = 

OBJECT_NAME    = FLOCK 4H-9
OBJECT_ID      = 2025-276AY
CENTER_NAME    = EARTH
REF_FRAME      = TEME
TIME_SYSTEM    = UTC
MEAN_ELEMENT_THEORY = SGP/SGP4

EPOCH          = 2025-12-21T04:08:26.034720
MEAN_MOTION    = 15.17889226
ECCENTRICITY   = .0002598
INCLINATION    = 97.4431
RA_OF_ASC_NODE = 66.8142
ARG_OF_PERICENTER = 224.3251
MEAN_ANOMALY   = 135.7775

EPHEMERIS_TYPE = 0
CLASSIFICATION_TYPE = U
NORAD_CAT_ID   = 66712
ELEMENT_SET_NO = 999
REV_AT_EPOCH   = 340
BSTAR          = .25872E-3
MEAN_MOTION_DOT = .5177E-4
MEAN_MOTION_DDOT = 0

CCSDS_OMM_VERS = 2.0
CREATION_DATE  = 
ORIGINATOR     = 

OBJECT_NAME    = FLOCK 4H-10
OBJECT_ID      = 2025-276AZ
CENTER_NAME    = EARTH
REF_FRAME      = TEME
TIME_SYSTEM    = UTC
MEAN_ELEMENT_THEORY = SGP/SGP4

EPOCH          = 2025-12-20T17:17:53.970720
MEAN_MOTION    = 15.17244305
ECCENTRICITY   = .00029503
INCLINATION    = 97.4404
RA_OF_ASC_NODE = 66.3364
ARG_OF_PERICENTER = 270.0344
MEAN_ANOMALY   = 90.0551

EPHEMERIS_TYPE = 0
CLASSIFICATION_TYPE = U
NORAD_CAT_ID   = 66713
ELEMENT_SET_NO = 999
REV_AT_EPOCH   = 333
BSTAR          = .32981184E-3
MEAN_MOTION_DOT = .6498E-4
MEAN_MOTION_DDOT = 0

CCSDS_OMM_VERS = 2.0
CREATION_DATE  = 
ORIGINATOR     = 

OBJECT_NAME    = FLOCK 4H-11
OBJECT_ID      = 2025-276BA
CENTER_NAME    = EARTH
REF_FRAME      = TEME
TIME_SYSTEM    = UTC
MEAN_ELEMENT_THEORY = SGP/SGP4

EPOCH          = 2025-12-21T04:15:56.888928
MEAN_MOTION    = 15.17746686
ECCENTRICITY   = .000208
INCLINATION    = 97.4424
RA_OF_ASC_NODE = 66.8061
ARG_OF_PERICENTER = 285.9401
MEAN_ANOMALY   = 74.1603

EPHEMERIS_TYPE = 0
CLASSIFICATION_TYPE = U
NORAD_CAT_ID   = 66714
ELEMENT_SET_NO = 999
REV_AT_EPOCH   = 340
BSTAR          = .47863E-3
MEAN_MOTION_DOT = .96E-4
MEAN_MOTION_DDOT = 0

CCSDS_OMM_VERS = 2.0
CREATION_DATE  = 
ORIGINATOR     = 

OBJECT_NAME    = FLOCK 4H-12
OBJECT_ID      = 2025-276BB
CENTER_NAME    = EARTH
REF_FRAME      = TEME
TIME_SYSTEM    = UTC
MEAN_ELEMENT_THEORY = SGP/SGP4

EPOCH          = 2025-12-21T04:05:40.010208
MEAN_MOTION    = 15.18054120
ECCENTRICITY   = .0001866
INCLINATION    = 97.4400
RA_OF_ASC_NODE = 66.8001
ARG_OF_PERICENTER = 189.6508
MEAN_ANOMALY   = 170.4690

EPHEMERIS_TYPE = 0
CLASSIFICATION_TYPE = U
NORAD_CAT_ID   = 66715
ELEMENT_SET_NO = 999
REV_AT_EPOCH   = 371
BSTAR          = .33885E-3
MEAN_MOTION_DOT = .6835E-4
MEAN_MOTION_DDOT = 0

CCSDS_OMM_VERS = 2.0
CREATION_DATE  = 
ORIGINATOR     = 

OBJECT_NAME    = FLOCK 4H-13
OBJECT_ID      = 2025-276BC
CENTER_NAME    = EARTH
REF_FRAME      = TEME
TIME_SYSTEM    = UTC
MEAN_ELEMENT_THEORY = SGP/SGP4

EPOCH          = 2025-12-21T04:02:52.389888
MEAN_MOTION    = 15.18165719
ECCENTRICITY   = .000166
INCLINATION    = 97.4437
RA_OF_ASC_NODE = 66.8163
ARG_OF_PERICENTER = 149.1020
MEAN_ANOMALY   = 211.0312

EPHEMERIS_TYPE = 0
CLASSIFICATION_TYPE = U
NORAD_CAT_ID   = 66716
ELEMENT_SET_NO = 999
REV_AT_EPOCH   = 340
BSTAR          = .36543E-3
MEAN_MOTION_DOT = .7401E-4
MEAN_MOTION_DDOT = 0

CCSDS_OMM_VERS = 2.0
CREATION_DATE  = 
ORIGINATOR     = 

OBJECT_NAME    = FLOCK 4H-14
OBJECT_ID      = 2025-276BD
CENTER_NAME    = EARTH
REF_FRAME      = TEME
TIME_SYSTEM    = UTC
MEAN_ELEMENT_THEORY = SGP/SGP4

EPOCH          = 2025-12-21T04:00:16.183008
MEAN_MOTION    = 15.18316174
ECCENTRICITY   = .0001499
INCLINATION    = 97.4422
RA_OF_ASC_NODE = 66.8150
ARG_OF_PERICENTER = 135.2846
MEAN_ANOMALY   = 224.8509

EPHEMERIS_TYPE = 0
CLASSIFICATION_TYPE = U
NORAD_CAT_ID   = 66717
ELEMENT_SET_NO = 999
REV_AT_EPOCH   = 265
BSTAR          = .21201E-3
MEAN_MOTION_DOT = .4283E-4
MEAN_MOTION_DDOT = 0

CCSDS_OMM_VERS = 2.0
CREATION_DATE  = 
ORIGINATOR     = 

OBJECT_NAME    = FLOCK 4H-15
OBJECT_ID      = 2025-276BE
CENTER_NAME    = EARTH
REF_FRAME      = TEME
TIME_SYSTEM    = UTC
MEAN_ELEMENT_THEORY = SGP/SGP4

EPOCH          = 2025-12-21T04:25:01.360128
MEAN_MOTION    = 15.17083951
ECCENTRICITY   = .000299
INCLINATION    = 97.4429
RA_OF_ASC_NODE = 66.7954
ARG_OF_PERICENTER = 278.6943
MEAN_ANOMALY   = 81.3952

EPHEMERIS_TYPE = 0
CLASSIFICATION_TYPE = U
NORAD_CAT_ID   = 66718
ELEMENT_SET_NO = 999
REV_AT_EPOCH   = 340
BSTAR          = .30926E-3
MEAN_MOTION_DOT = .606E-4
MEAN_MOTION_DDOT = 0

CCSDS_OMM_VERS = 2.0
CREATION_DATE  = 
ORIGINATOR     = 

OBJECT_NAME    = FLOCK 4H-16
OBJECT_ID      = 2025-276BF
CENTER_NAME    = EARTH
REF_FRAME      = TEME
TIME_SYSTEM    = UTC
MEAN_ELEMENT_THEORY = SGP/SGP4

EPOCH          = 2025-12-21T04:22:46.265088
MEAN_MOTION    = 15.17195505
ECCENTRICITY   = .0003091
INCLINATION    = 97.4442
RA_OF_ASC_NODE = 66.8018
ARG_OF_PERICENTER = 260.3482
MEAN_ANOMALY   = 99.7403

EPHEMERIS_TYPE = 0
CLASSIFICATION_TYPE = U
NORAD_CAT_ID   = 66719
ELEMENT_SET_NO = 999
REV_AT_EPOCH   = 340
BSTAR          = .30479E-3
MEAN_MOTION_DOT = .5991E-4
MEAN_MOTION_DDOT = 0

CCSDS_OMM_VERS = 2.0
CREATION_DATE  = 
ORIGINATOR     = 

OBJECT_NAME    = FLOCK 4H-17
OBJECT_ID      = 2025-276BG
CENTER_NAME    = EARTH
REF_FRAME      = TEME
TIME_SYSTEM    = UTC
MEAN_ELEMENT_THEORY = SGP/SGP4

EPOCH          = 2025-12-21T04:05:34.915200
MEAN_MOTION    = 15.18037564
ECCENTRICITY   = .0002568
INCLINATION    = 97.4447
RA_OF_ASC_NODE = 66.8210
ARG_OF_PERICENTER = 197.3263
MEAN_ANOMALY   = 162.7884

EPHEMERIS_TYPE = 0
CLASSIFICATION_TYPE = U
NORAD_CAT_ID   = 66720
ELEMENT_SET_NO = 999
REV_AT_EPOCH   = 340
BSTAR          = .33189E-3
MEAN_MOTION_DOT = .669E-4
MEAN_MOTION_DDOT = 0

CCSDS_OMM_VERS = 2.0
CREATION_DATE  = 
ORIGINATOR     = 

OBJECT_NAME    = FLOCK 4H-18
OBJECT_ID      = 2025-276BH
CENTER_NAME    = EARTH
REF_FRAME      = TEME
TIME_SYSTEM    = UTC
MEAN_ELEMENT_THEORY = SGP/SGP4

EPOCH          = 2025-12-21T04:24:18.039168
MEAN_MOTION    = 15.17117423
ECCENTRICITY   = .0002528
INCLINATION    = 97.4388
RA_OF_ASC_NODE = 66.7818
ARG_OF_PERICENTER = 292.9689
MEAN_ANOMALY   = 67.1278

EPHEMERIS_TYPE = 0
CLASSIFICATION_TYPE = U
NORAD_CAT_ID   = 66721
ELEMENT_SET_NO = 999
REV_AT_EPOCH   = 340
BSTAR          = .24973E-3
MEAN_MOTION_DOT = .4885E-4
MEAN_MOTION_DDOT = 0

CCSDS_OMM_VERS = 2.0
CREATION_DATE  = 
ORIGINATOR     = 

OBJECT_NAME    = FLOCK 4H-19
OBJECT_ID      = 2025-276BJ
CENTER_NAME    = EARTH
REF_FRAME      = TEME
TIME_SYSTEM    = UTC
MEAN_ELEMENT_THEORY = SGP/SGP4

EPOCH          = 2025-12-21T04:01:46.898688
MEAN_MOTION    = 15.18206634
ECCENTRICITY   = .0002274
INCLINATION    = 97.4398
RA_OF_ASC_NODE = 66.8045
ARG_OF_PERICENTER = 160.4921
MEAN_ANOMALY   = 199.6400

EPHEMERIS_TYPE = 0
CLASSIFICATION_TYPE = U
NORAD_CAT_ID   = 66722
ELEMENT_SET_NO = 999
REV_AT_EPOCH   = 269
BSTAR          = .3092E-3
MEAN_MOTION_DOT = .6258E-4
MEAN_MOTION_DDOT = 0

